ORBCOMM FM20 [+]        
1 25416U 98046D   23314.58996826  .00001629  00000+0  62105-3 0  9995
2 25416  44.9944  63.5785 0001798 204.4560 155.6202 14.34588741320241
ORBCOMM FM16 [-]        
1 25417U 98046E   23314.58724536  .00002382  00000+0  87183-3 0  9993
2 25417  44.9951  60.5533 0005350 232.2173 127.8189 14.35333793320167
ORBCOMM FM15 [-]        
1 25418U 98046F   23314.58078993  .00002338  00000+0  86088-3 0  9997
2 25418  44.9973  64.2378 0004795 232.9126 127.1283 14.35084429320175
ORBCOMM FM14 [-]        
1 25419U 98046G   23314.43502681  .00002599  00000+0  94923-3 0  9994
2 25419  44.9963  64.2460 0003811 220.7519 247.4098 14.35204737320105
ORBCOMM FM13 [+]        
1 25420U 98046H   23314.44835378  .00002050  00000+0  76755-3 0  9994
2 25420  44.9973  68.1453 0005958 220.6688 139.3714 14.34637726319180
ORBCOMM FM21 [-]        
1 25475U 98053A   23313.97830420  .00001503  00000+0  57629-3 0  9993
2 25475  45.0071 154.4889 0000635 136.1908 223.8990 14.34644602313131
ORBCOMM FM22 [-]        
1 25476U 98053B   23314.29177087  .00001866  00000+0  69783-3 0  9999
2 25476  45.0067 150.9341 0002382 158.8034 201.2912 14.35030964313161
ORBCOMM FM23 [-]        
1 25477U 98053C   23314.28695185  .00001556  00000+0  59488-3 0  9990
2 25477  45.0073 155.4796 0001627 152.7414 207.3519 14.34627754313325
